SK_Localidade;Address_Number;Division_Name;Region_Name;City;State;Country
8c9484743e14cc806669136b37dad37b838a8a96f720caa79f4bd2ef89ea63c0;10026355;Domestic;Western;Casper;WY;US
0c850a682d85ef7d0564d19f30bf255b74001e748a05a1fb81d001f126919231;10025508;International;Canada;Moncton;NB;CA
d0a8f5ffdca4549e9d2933d99e09d488cad6e32ae57d70c165cfec96c0990d1e;10013574;International;International;"";"";""
cefd7c251326b6446eeb805940b05c438715ba37d399c7e9da44a30a1786ed54;10015495;Domestic;Central;Kansas City;KS;US
b4a549383fb61c1b953c91d3793f4799801c1e26000c71183d80814b64892c51;10026843;Domestic;Western;Tulare;CA;US
f69037ca993c1423c040f5879813ef9c028fe7be01d88fb8c71627e00595d4c4;10026348;Domestic;Southern;Mebane;NC;US
6dc3bc79259fffcda8e7f92f9a380d89ad90fa1757a027ac657f12a3e5df30a2;10011052;International;International;"";"";""
530d40d36188c62b2ebc34d55ca0275fd5e49b36b439ca5dea901160c6a5b6a0;10010914;Domestic;Central;Overland Park;KS;US
500af83e987acc958890f1dc570899c78c0eda44b7ce512e563ee289d54a6263;10007253;International;International;"";"";""
e79718483ad66ccac105e8053945099e1985660f75646db3b2f4f5986173a8c1;10017576;Domestic;Southern;New Orleans;LA;US
872747177b6a40a0a46a9ebf5a5d40b25aa4fe356277bf2466e0fecffd49bb49;10013572;International;International;"";"";""
443cb9eec471e933a3d8a48e64542c84b36f49ad190b2e5264ffd9108547895d;10026299;Domestic;Southern;Dallas;TX;US
5c48441d9b176eeb64a150c304e50b2f2db43cd770b5e7b3b371c9537cb007a7;10019512;International;International;"";"";""
73e87c57aca3075a50d97fce0a10097071a4513eaf0d125d6b47c9dfc03f4f96;10009985;Domestic;Western;West Jordan;UT;US
103269abfec940d01ea274a9a25fa51520e5ac5ffc861ab7fe69474ea7d91c94;10023244;Domestic;Southern;Cleveland;MS;US
a69eba680b25f48f14621511f1babd74fbdaaef67243b2bc75a65254b6bdcece;10007355;Domestic;Southern;Amarillo;TX;US
d9c4f5c17881c286325721a44d4f68f623d5eea9d311e6da941425cd8a2f8c41;10005043;International;International;San Jose;Não Informado;UK
c56f7c8c4a06e8332e8099ae68a226b01eb15b5c309f0826e69153b34d2f62b7;10022431;Domestic;Northeast;Vinton;VA;US
11625135e46b0834fc00ea4f166c1ab1b2dc016ba5b9adf2a11f0037a75e0e30;10017054;Domestic;Central;Newport;MI;US
b304633695f113dbb051543128a2883e2c6678d33aacb826d0151faff5098539;10014803;Domestic;Central;Grand Rapids;MI;US
d18a258698db5c566e0736fd455e170ad01abd951d7726479aedb3e4139205f0;10023780;International;International;Asuncion;Não Informado;UK
7bd83a458903230403eb370b2e85d37f6ff14aa6b6e050aa1780c1cbfae098b2;10025025;Domestic;Western;Auburn;WA;US
4d6532eef6b078aeb816227d9a7d78db716dd56deabcd66ee88270096983b2e3;10025575;International;Canada;Beamsville;ON;CA
5d85e60a6712c5838b26273af803a2d6c650ae67da1374d8c3205df625818593;10017852;International;International;"";"";""
69df04ac4a4e8f7859a74f3b229dec2de786ca18aa9bb005507a1b78cab4428b;10013871;International;International;"";"";""
fc7682816080b8614b2be55d938e19af80bf1f437206b9bed86afdb0c26c7e53;10011355;International;International;"";"";""
7f5ae69f1374e2daab85bca71d81b8def2df26400fe07ab84f0ecd7f5a61d027;10023489;Domestic;Western;Sacramento;CA;US
b9f5f78358c707836cd83e4a029fa4f81d13ecca04833528d281930941031143;10003554;International;International;"";"";""
2d65f0d92451cf3d91f67e12f6625637089599b543248f4255fca14516feb46b;10004302;Domestic;Southern;Baton Rouge;LA;US
d7ea6b99f8e5cf561dcaee4931fe836827592ada8b7b87eb628126f87edc68bd;10025392;International;International;"";"";""
91085e7b370c67ce4df3d6ab19ece9a5619f94d890b0c4a2ab26165fe8e9770a;10012234;Domestic;Western;Hayward;CA;US
59dabbfebb0ab5078312408e3413dc7dab501e29d6940844ac44cfc2b9a56dd8;10010906;Domestic;Northeast;Frederick;MD;US
928985d4b38c943747e40d84141a6a3d126cb58632ca8771d5551ff898470c03;10027119;International;International;Não Informado;Não Informado;UK
b3382e6bed8cffb06a2cbf325c1be2cf609a9ae7e2b35c9313eedb782437ab87;10026081;International;International;Bremen;Não Informado;UK
f73a1c5c23f9976602ac7b06bf416e97fef86054ca3444ba893f9f33caaa7240;10013079;International;International;"";"";""
9614cb8196da54f52d56bea226a39c2361f1f6a3cebc586abae734c777dbb756;10020445;Domestic;Central;Rapid City;SD;US
71067f7ce37ecb0bf091c1a9bf9dc933c81737f5562b62c3d9bd5132031d0731;10024003;Domestic;Western;Benicia;CA;US
bf71a0a72be2d84ce4ad5bd87bc22f89b12864fa4ef30ca609d17724e28133ce;10025296;Domestic;Central;Sun Prairie;WI;US
78df4eb115537eedea9f1671b32e21007b77d106620aad1f4eaf6ffafbc5ebd2;10027572;Domestic;Northeast;Elma;NY;US
934a226128fc1de23f2b7d26cffedb619ef2b72e28be079f4d18b5d5174f9d0e;10000501;International;International;"";"";""
05eee5daf07d83e535acb2ecb256694a790f5d0a73e9861c522f50b5815f8ea5;10021936;Domestic;Southern;Louisville;KY;US
50aed44c292f4d5ba91db34e8d7448d0e0d0dd071c978b65b7d52e568cca5123;10002244;Domestic;Southern;Statesville;NC;US
6351ecff4fb8689184e315719011d5e7e7418775bbbc16995d589e70e9faa79e;10020639;Domestic;Southern;Tulsa;OK;US
f20bfb26b1afe4d86f3af9ae2598a092e6b5d8141a51ab40700d411714bf5ef8;10000499;International;International;"";"";""
903647c7c7007c01c54fe0979216966ea830df0e1d56b3af9e8d788a1ddf9586;10021239;International;International;"";"";""
fcdcad1c622d6ca829b55fd3c84334d3866affee3d2df319c50a7f720a7c6aac;10010884;International;Canada;Boucherville;QU;CA
ab977f071a97a913ce8aafb77d0e5e055cdcab45d2123564ed5e6d2bc2dbc7d1;10019678;Domestic;Western;Sacramento;CA;US
20850b2fb333c79587cacd871adabb35f5fea4f67cbd8aa3d56c699afc189357;10007566;Domestic;Central;St Joseph;MO;US
92abe92b692198ec2d46de799588173f3fb61165a39c3d167ad681e34010b5d4;10008596;Domestic;Southern;Springhill;LA;US
2b5789c20269cbcfae502342578a65ab17a2cccd5a22dbf8f5f00ab6e0498e12;10017828;Domestic;Western;Cypress;CA;US
5682f99ab99f87b91f3d2a204890de9c0e356df34d90bf16554bb124bd37761b;10007309;International;International;Não Informado;Não Informado;UK
d93fc55a6669f269e0114f8ecc6c2526dc98d7a7cedb9bf7a941aa364e88a62b;10022240;International;Canada;Mississauga;ON;CA
fd42c9e668818704a4445bdb95461d2f23ea796112755e33d6e26b5c17bfa301;10011398;Domestic;Western;Eugene;OR;US
a29cde2595f20e4f0dc7d59eaf08bdd86a9a70e360b34f54e43b0e005aa85093;10019388;Domestic;Western;Ft Collins;CO;US
fd98044c46dfe5f5eff9b6e2ce3490c3ec75e0b44ed53cf2a537206ace9d3d6d;10026606;Domestic;Central;Dearborn;MI;US
bedf799af04d61e0679cc57c8fc33e9f46febdab0f48e8a943f3260c311ed818;10023759;Domestic;Southern;Birmingham;AL;US
97299bef291b67e0012af6a3ef262d54801e84accd3eaa0c0f61f550629ad03c;10025033;Domestic;Western;Billings;MT;US
74ed0270dcf1a7b4e5b3f89eddf457c15320b05740580b050ee75e833dfbd1b7;10012927;International;International;"";"";""
ee3ebfe51b694e24f2fe68f3d475758e0f8df212a07aaae0babadc1fc8b9ac07;10025814;Domestic;Southern;Houston;TX;US
915216db15a1429b40071357548fc57580fbd899abdc144dd70e810823c7a200;10025771;Domestic;Northeast;Waldorf;MD;US
16f93f0a9c20716955009bdbd6b33c2f3de808461dfb381bd2d6c1bb9f0c65b2;10013341;International;International;"";"";""
979a2c8f40248643533ad9a87c58a41b61ac3e3a2fc5e01c67640657a242b515;10019150;Domestic;Southern;Jacksonville;FL;US
a61e430eb63d3c571fc76eb9c164b2947957341e584a18c6eb217e4470237c47;10000475;Domestic;Southern;Charlotte;NC;US
71b674be20d877b945f52926c93f56ba719622c0035d1703fd037113dd6eb1df;10006836;International;International;Quito;Não Informado;UK
13f2802b4348d45a2353f8558fe72addec86a2b89e2c3384ee2a531c49c44d8f;10007134;International;International;"";"";""
7f064ea95f8424db17cf161fc7f48b87c9b22c8e725bbe0fb763ac3ab83e3224;10025359;International;International;"";"";""
8a543018228886d10f0bd82c87a64b452a9d1e5e131c94ba7d8222a4e8343f84;10010935;Domestic;Central;Sioux Center;IA;US
a8f06196aec6de209afb16fb98808f4e1300c263b182eda6886513f73d81c837;10011870;International;International;"";"";""
e2050f9879e49357031117c5d7426d5d803f5e400e794cc7738222b5d8fd029e;10017314;Domestic;Southern;El Paso;TX;US
419e14910c0955c474fafffda2336c8c498f1426374bca63adb87fe4dc198466;10006983;International;International;"";"";""
d6ebb45f486a160c3d8ea1a97633a43ff78b4c264b6ec0141111e14731c3a1a7;10024704;International;International;"";"";""
fea8122c4a92b51946e696b32fec6ae66bfb48ea39d81a52d8a1dd78d704041b;10016609;International;Canada;Winnepeg;MB;CA
81ed238995ef2c7cf5e521cb873d657209ccd0ded0a6507ccec902caf3f437dc;10000460;Domestic;Southern;Goodlettsville;TN;US
f08b7e93fadf162659eb1846d14d7c59e3e82306f596e37e4b4d26b0fe4f9854;10014546;Domestic;Western;Phoenix;AZ;US
ff3321436e05b651550c0f32718fc7a23a8c5b223c7ec1e1a817e231d250ef23;10021160;International;International;"";"";""
a418d9dc581e15d527dc69e92f72c932ec18083a9455a63a6849583f343b547d;10009643;Domestic;Central;Flint;MI;US
d1debdf3f938ea150d071a91d50cdaa627e137030ef131e777c2f3fc9e84ac14;10020080;International;International;"";"";""
9a958b9b46142a266ee3a507f2357cae662444bf1d908e9d8054bad63a438dde;10025251;Domestic;Central;Wooster;OH;US
fb51d236c787b545bed278880cb2313451bc644c68549d8938eeea9a6bffea9d;10015267;International;International;Sollinge Molle;Não Informado;UK
6931a7d9e19ce9280b45810832ed1e8b677aa3fe006867f360061ab779fe914c;10013538;International;International;"";"";""
456a8c3197053bc5340c044431fa6f210e2e90b32a50d992a84c01b85ccb1ba6;10011600;International;International;"";"";""
8f6477522007d5be1f74508174feff3bd6fbf6f41562f1cc181bca6833dac673;10002746;Domestic;Central;Bensonville;IL;US
ed37c5401ff51a20bebdd21182db125d5bc447047c20a454f9de3a9d68579ca4;10005376;International;International;"";"";""
0c2b3932561ffc9145a0daf9d15e99cd6ac2eb437d82fe94dd43653edf828f1c;10021412;Domestic;Western;Clackamas;OR;US
f4209a679447aeb8f99aeba5b96217ff0e001c5366e6984e42b9d971a09432db;10025021;Domestic;Central;Depere;WI;US
e9e1f09a97af75f7bf832ee5de88090ef3a281604faf2f3bb89feab143136f7d;10021139;Domestic;Central;Livonia;MI;US
dca65d3e392b5935f31b51183cd3c3a91101ae51e605b8359206c199eef8fce9;10019105;Domestic;Northeast;Mechanicsville;VA;US
9a004a7a84a673f43235eb5a203bb90ce4d3843b2a1f7837ab990829ca3aa900;10025919;Domestic;Western;Compton;CA;US
ca4f089f739fb30bb956a41a768390000cd908f2ac47c250bad6f2e77c65eee5;10026861;Domestic;Western;Salt Lake City;UT;US
cdf7583e7a12d312b15283d457ffded5800df50ce78b0c6705d2167049628d1c;10018628;Domestic;Western;Tigard;OR;US
dd8a2e5e56820bc5ef2352d16fce8a1a9b0f810adf8064784337c13ed2059864;10019617;Domestic;Southern;Spring;TX;US
e583085f425eb8021f914971e7f28de8b7c518db42a4015a588cfb121351252e;10026062;Domestic;Southern;Houston;TX;US
708f72be14fadb87f62444755daecf74be0bed60860f628a2755ef84c27c6769;10000480;Domestic;Western;Phoenix;AZ;US
4accde1d2c5d542f146c07aab896a74c95c5c7aef2cf988706a9352dd088453b;10023471;Domestic;Southern;Odessa;TX;US
10b6a4b49432726f2edadc2f494ce4715f500fe2edddb14638acb6beaefb4941;10000466;Domestic;Western;North Highlands;CA;US
a5d7e03952652cc9321e6b115fd24cbe675c82110b3356f73e3ab976fd57dfe6;10025049;Domestic;Western;Milwaukie;OR;US
53e0e8ba4571bec7402f1ed1c8b6c6aa4a45909462f475f97fff62cdf4400b2a;10012128;International;International;"";"";""
d8b47582fc638d1fb8bf05b7b5ed3e27d34208114ce744235a4a5aea73de30d0;10021415;Domestic;Central;Indianopolis;IN;US
f8edb1d36b0d2903bff979c49517907fe0b01b7c469885846c398e76ff2ed588;10011821;International;International;"";"";""
a36b165c67f2479ec2e41e659e0f871a739e5168d6d129624298ee55f40ffd31;10025269;Domestic;Central;Overland Park;KS;US
1c182a908e05698741f59d415664670b4fdcd5efe125071c245ff44e55f113f9;10009356;Domestic;Central;Cape Girardeau;MO;US
79b3828499a6e00081aadede33f95e1b0ef18edc08a8c71d9e168c3b244ed921;10025304;International;International;Não Informado;Não Informado;UK
006341b3ba0ea021519042b421cb2166c9481f288eee91bff6c5c1953f2e717f;10010832;International;International;"";"";""
4aea9213f99337d95b254cecc37b00eefc363d7f97ff52230ebeb7f3c542ea99;10020390;Domestic;Central;Lansing;MI;US
9bd81d4c6ee586ae9f3418fb66a8b3a741475c8dfc52c0207ae4fcca97d97747;10012305;International;International;"";"";""
8a881c3865a951750d2acd48ef2817cca829424e17a309559964600f9534eeb1;10002139;International;International;"";"";""
5f3ca57922afecd4d1d5c000ee679b05eb7d2b8218d28a63bb1e7505357a0431;10002220;International;Canada;Prince George;BC;CA
fcada977efefaef467f79a14d205335a290a6b714e0705084c54a5d9364273e2;10025549;Domestic;Northeast;Shady Grove;PA;US
0a4cba48ab3e39b4b471a10b0344d50673a5127c897d4bf7a1568bb229023644;10025300;Domestic;Northeast;West Sayville;NY;US
0d85e55335a35aa9fb42ef4f4fc28ca54391316a62a9d099fd4fb888fd81fe40;10018623;Domestic;Southern;Laurel;MS;US
512d5d257d830a68b70be720aa06f38f72952af41f70e8dfacafc74d4f152123;10027370;International;International;Madrid;Não Informado;UK
344f4d2c0c4647b227e503f8fa9af5bdc31883244f64bc1d075147ecd498ddd3;10017036;Domestic;Central;Eagan;MN;US
5da70c1ce4cac05a919562fc3bec26451478c9ab24325611dba7e5db753347a4;10023447;Domestic;Southern;Tulsa;OK;US
4ced402fb6df702847cd92aa8cf4e7f6242ae32bbf3f4692dacd57a457fb77cc;10007258;International;International;"";"";""
674a68cf6983e118258eb09c722b7fbb67f048474356f1e7fa852874aabc8fd3;10020332;International;International;"";"";""
3f49489780ddb7fea0494d02c53b31efef3a565174db1be8a5997fe58fa95a71;10021242;International;International;"";"";""
8baa7c9d4c4c361f58d7573c4ca2ebb2dfe9b51c5ba110ab2915747f83e46269;10009660;Domestic;Southern;Augusta;GA;US
c176d45a32118703a67adad8f40b058e32ffda31e0cc043b6275b6ac9599352e;10000472;Domestic;Western;Van Nuys;CA;US
c490a50a9624d64692cd9629b8339b7f3c0f44ddf5314d3e5ec720b603ed0070;10020927;Domestic;Central;Sidney;NE;US
a8915bdd735d0ee907871d6baf379784868f3be9f246d9e6a942c17a961609b9;10021231;Domestic;Central;Middlebury;IN;US
2c219ff6548e95bbcbfe6167234d3da1432c4fa35b980a9df5a7327d59881098;10012235;International;Canada;Winnipeg;MB;CA
f4ec29c72bed600e6552586706fe5213deb533ca0d2c8babc6938349c549256f;10006848;Domestic;Northeast;Fredericksburg;VA;US
aecb73f434c330255031fa0c15d18f0d9cb32f23c9264b11be81f1bfb4c8625c;10023757;International;International;"";"";""
7591f14c5e0dc48a38fd6aeaca4e851b102cb3420202da395c763714310b2b3c;10021736;International;International;"";"";""
227d1e12888dad215662fa39102d2e4289d061f0dcda1ffc56938d10bcbe46aa;10000458;Domestic;Central;Saginaw;MI;US
b52af90da71bc1212aaf4b6541de0dd641dd019a5f71dac6fef8ff3f682c441c;10021184;Domestic;Western;Aurora;OR;US
e8d522a5651ee10edffbf2f33a916b09be3f2ec9f3b08d6cd87202e4d9f4977c;10004602;International;International;"";"";""
d37e35ea19e50434df01e7630b67cac45c5f63361da98c3dc3dccbb73f27441e;10010974;Domestic;Central;Chippewa Falls;WI;US
ba0b5c1440dce594418217d2b86e19ec3fe7753affa14eda743492a375829999;10022978;International;International;Não Informado;Não Informado;UK
6172c03c4843768b5d97a24918bbcac01979fffa8aa5c936554c021cd89e7825;10012761;International;International;Cali;Não Informado;UK
67a61ae54212db7e0e869eef7d31a891efeaf9ff4922b9cc628553df38360929;10025264;Domestic;Western;Tuscon;AZ;US
059cf90fdc1691098b5dbbfe11f96fc865bd2e406099d305481f0fff1d87a083;10019812;International;International;"";"";""
c2b7fa94334adbe1e5aea84a64de3a33ee3dac4747efbb628102766dd4ec4258;10024550;Domestic;Central;Appleton;WI;US
4d8784dcf8e83411875c09866e5c551da621ce0fd821a1319659c23ba36e5398;10016045;Domestic;Central;Monroe;WI;US
bffef479a30462c161c4b7520914e3a41d3cf293e24a589e60b96ac40fbfea62;10025583;Domestic;Northeast;Nesquehoning;PA;US
67db279b600b768efda0b22977a93d50a677ac3fc8fb4f88e9888a10cc7dbb32;10005688;International;International;"";"";""
e593aa88084fd8de9f0c7cb7f4eb7b1443d00957499af7a8897607b6b4bd9092;10011198;Domestic;Northeast;Framingham;MA;US
8317da84afa25a0c3aeff162159d96674a51912ec5897d6d5330cbf446f9c68b;10017638;Domestic;Northeast;Roanoke;VA;US
81c10ba76411b09101e7d2a62d3be1d4ad6e484a7f0267b3c6c31863e0aaca3e;10009885;International;Canada;Winnipeg;MB;CA
70c81bf98107883a83a400a71b99b875cb8e2605c6bffae5aebbba48de7a40bd;10024524;Domestic;Central;New Hampton;IA;US
ea9fb62382085759a9a7d9f01f0f643115a22dafb2bcbb75aaec40b844ff1fc2;10007577;Domestic;Northeast;Stewartsville;NJ;US
220ae4f5b4ccbeeb78bb620e4de10faafa6ab49b55d8be8bcf4e1f7b8c7ca7ec;10011521;Domestic;Southern;Okolona;MS;US
1a62dee084c1580a25da224c4df8f17bd899e4e9d9a38af33bbd227037accf5f;10025249;Domestic;Southern;Memphis;TN;US
879a70810adc449e7ac53a73cf7de80fd52968a577de29dc6b5439ac4bb21288;10019420;International;International;Ruwi;Não Informado;IR
57b337ace2cdc52311fd1ead1867fa51aa1cb1c2f52f7489c7add53342aaacc8;10012226;Domestic;Central;Troy;MI;US
6710a3fe8c8d368958e7c58f162cb1441b7e9595241aa90d7512aed78aedd350;10012885;International;International;"";"";""
1f154dd726fb9a6363fe0ed34a1be64fe04e548ac75a13132536ffe770d1af41;10025063;International;International;Não Informado;Não Informado;UK
d259c6410b2b22ece9180e18c7c2882d7db5afced67b3c184aa4501038912004;10011623;International;International;"";"";""
98eebf6700ea02c5b616b26876392f10d7f75710767dde36cb29ac7a4476904d;10024262;Domestic;Western;Oakland;CA;US
72eedd6623120f84134a844f7483add4b0425371962fdbeef70243d671838748;10025353;International;International;"";"";""
fd3057c85d342ca56988adcc6f433078c4f15a0e0f0b1577cabe20e07ad8a371;10009633;International;International;Não Informado;Não Informado;UK
32e666d54537b0b3072a672176c381e8b5ca67bd0fe559e4f0997de17f6fd23b;10005006;Domestic;Western;Boise;ID;US
668f7ec2714a79afe4c1b6065bec99ec0c4b9ac5dd23720fd0230f15f5589769;10002969;Domestic;Northeast;Manassas;VA;US
2ce06448723feb56eda4a2dbcc015cf7c46592ad26310e47d532cbb64806db37;10018885;Domestic;Western;Pocatello;ID;US
c2c929fc10ae2b2185c53b067c78d5c081416f7b5ebc67dc5c88fe270ddade24;10017553;Domestic;Central;Ottawa;KS;US
e3c6609a0ed367b3b844c9551f0958439ecb2571834110a369be94f5af254c10;10015011;International;International;SE-132 28 Saltsjo-Boo;Não Informado;AU
624338fc730437b1ade1111d1d416651038cf065d856e4aa1438011ee1d27eea;10022750;Domestic;Central;Watervliet;MI;US
bbde27fa8c4fe554a0da3aa197d59a3b4eb48c0c5b8c2c2503f859b00ab39cb6;10021422;Domestic;Western;Brea;CA;US
1ec67874a24a85087725d63ef3a0d938fc4474ac84fda56d2d7d150887caf3bc;10017585;Domestic;Central;Milwaukie;WI;US
e84674355183724381f88016b5b7661b5c886f265a9cea75477ad6da2602cc8d;10009662;Domestic;Northeast;West Point;PA;US
14bf91b3fdb80874d472d3db885bf6a951b9773957afc54e8b61cf98174af288;10009642;Domestic;Central;Joliet;IL;US
62b6e6e756357934e98c3bf64f04820d87be6eec0257de1af75a691209893c97;10018580;Domestic;Southern;Beaumont;TX;US
13f2185e0e130b6f82d57ffddf57f1937903da53e9a09a942d29debfd77bd609;10007591;International;International;FIN 00710;Não Informado;UK
76fd20d921aad2a8cda7a23cde05e9f1561b12a1258bbe2cd059f6b354d7c0e3;10024942;International;International;"";"";""
abae84e814783ed291058f8e9457c1d728ee11b17b517fb1ea3d2eaa773bdf6c;10005236;International;International;"";"";""
f7c194a3820fefa52f6739ac5d726950a50ca28e566a57ae0989fd78732ebb91;10013011;International;International;112 Reyjavik;Não Informado;AU
e7e7f2284bc94706dc5c70721dd2a68f65209f36dd942ba7a06df1474d9fe626;10025062;Domestic;Northeast;Bedford Hills;NY;US
d68cb872760e2dc9f3bfa075c57de4ee499b39f8a104deae54e081c493df60ec;10023022;International;Canada;Surrey;BC;CA
0f79c09ef65cc338cab8ffb32681381a20f8a9f8928be51df85f417ff0ddbcdc;10019066;International;International;"";"";""
9418d9ed6f486e26a154a1a6e60b99c5e5f19544ea90f48c0ef670d9a2d15d74;10022168;Domestic;Central;Cass City;MI;US
4be2ee064f03341dbee2f1b54a6f95d10e25d75110c48a8075ccb539a4016665;10012157;International;International;"";"";""
5fa3ea8c18ad622b2c112c21a5fe4f1269acddd8dc7739b8be828b541c3716a6;10025758;Domestic;Southern;Oklahoma City;OK;US
40e11d9857d9f653a4d34607578d905a89a2e3ed3bc70f7ead5035a7829dd3aa;10009156;Domestic;Central;Attica;IN;US
57593cdc1079048d28ef9366106492d81e1201ea5f7e3efe4fc2c928603d74f7;10003795;Domestic;Southern;Baton Rouge;LA;US
569fd64aee95769227b6a9dde77556de3ede29d4c32ee33b259231c530c8671a;10005810;International;International;"";"";""
c7f3843409246bbfa621522a4229568078cb4705b91bbabfabaa93e724633663;10013397;International;International;"";"";""
553bf32b33461be5199f363af322f606ebb629115d4c43fce19bf6fa359a140b;10020393;Domestic;Western;Fort Collins;CO;US
2dea92c68a52be9ed2c61732ac97bd2f08c5524c727c969393b3af12a0d699e2;10023509;Domestic;Southern;Tampa;FL;US
4a147183e205950cc65a38d9d36cb2794b55eaac07ddeeef32dd17c78c53eea8;10022252;Domestic;Central;Crestwood;IL;US
264c11cf4eafb3b4dd3130084590cd2da24548403214c31a66859b6c2db410a1;10014471;International;Canada;Calgary;AB;CA
54390f41dd2e02f50dea4e3683310f6f0553409e416018aea9b8ce5e97a11aa1;10027575;Domestic;Southern;Dallas;TX;US
dd879f142d56e77b592a4e80051591b5f1b3beff9bd8fda2d73c71d978c31416;10025243;Domestic;Southern;Longview;TX;US
4d25f2d382e022318938550be8652b23042389d48f4f262af591f8658f0fc7d8;10026560;Domestic;Central;Dearborn;MI;US
84b30c756ba45d56ff7a783c41d6fef439f53b82c25836184e4b20b2a05568dc;10021418;Domestic;Western;Wheatridge;CO;US
b59690db14ddf478adf0bc3017bf87c90009d17614f1c54503fc40f194556c49;10010882;International;International;"";"";""
04942c6f14aa2d856aec68b74db5334f4ef5c000889a5804c5d0d1eaa71fe4af;10022678;Domestic;Northeast;Richmond;VA;US
9dce921b6d08a1a9cbcc21c6245cdb651e032c26433d57a4214665b5d8c21372;10022490;Domestic;Central;Overland Park;KS;US
ceee60222051c4025f5722dbe08314963fca31b58785b564a5b7d90930840edb;10025285;Domestic;Southern;Chattanooga;TN;US
dca7888c496f4300dbeb5df6a509f3681bc6db811ba3c45a00514e94b348290c;10014238;International;International;2215 TC Voorhout;Não Informado;IR
daee3ab02ff74d4582fc251682e800624b76efe64a5747dc060111ef048fded2;10018352;International;International;"";"";""
50452402f6e00a9e7f793b96b2b5eea0fd94bb4cea576d01d81965c6ee8805eb;10014804;Domestic;Southern;Shreveport;LA;US
dda96ae7b30d7a4f13058dd9eb6cd22c9475b105b63d432c1355544aa0926a10;10026839;Domestic;Southern;Greenwood;MS;US
663bf64fb447c73245eeb1309bfc99ac57818422bd554049dfa543b8dea6c25c;10014047;Domestic;Western;Fresno;CA;US
127024c0f231f5eaab300bd683d5e3f9a69d93075ea3c30c23c23b087484fd5b;10021175;Domestic;Southern;Johnson City;TN;US
6d81483c27730be6b81b8da23a24f9d5b9c70d8e513cce80b4cf5343dd38ce2a;10021986;Domestic;Central;Livonia;MI;US
84741e648de15c523e08a8c411d36a531719bc71dcb8bf08bf7325d0815776bc;10021222;Domestic;Western;Buffdale;UT;US
8e5896c30d7537319c5850a656759f6550c1bb30e6f80d88bc349b2d94a321fa;10020868;International;International;"";"";""
c9048ccb1ed73b226d76425c05d88ef733cec7651ca402cdcbc75c5a6dc62667;10006846;Domestic;Western;Modesto;CA;US
7dfee5be2578fffde9f969d82b206353af78eed4feb7cb96feaa26919af9e2e1;10002412;International;International;"";"";""
b3d4a44c81c7692b27678a84035015038129d6894804eaf5e3e79f98143dc758;10016549;Domestic;Southern;Jacksonville;FL;US
5e6f2516d77c0ca8efb0d3a8bade67c2011ccb11e733e23dffea22aa9a7e82e1;10024999;Domestic;Central;Andover;SD;US
b5f26c9c9a4353507df48f266aca2b3afbe202d21cfe22ea5f9282f91996d74f;10020907;International;International;Não Informado;Não Informado;UK
3bedfc680a083259a123d7f0c15ccf76a54a6df9b9a7f2898e626ea96459893a;10024248;Domestic;Western;Portland;OR;US
c4f59af72b43cecd8ccec971e2f602b2ac0b380211b8c7d2ab93073c1378fb94;10024541;Domestic;Central;Bedford;OH;US
9c28a063becb99dc40f4b9c6d5159aa89643ffa73257e7803d2bd826959309d0;10022434;Domestic;Western;Placentia;CA;US
2f4989555b0081e02e620aa006df271bfcbac918ad1dfbc19c539c357fc26c33;10022183;Domestic;Western;Breckenridge;CO;US
5bfe2044bc35ecf9d53c9f30146e84b58fb07b666037c57450dccc7417ec8b2a;10016542;Domestic;Southern;Greenville;SC;US
cf5e6e3f6a6903cdf74b4f54ec398fa709b71dae51555f8fa0b23e7ac831ae12;10018518;International;International;"";"";""
c2a045cd5f8aa6e0283f95c08dd19b7df93c0743e97202284b25a3f7c6e73030;10002142;International;International;"";"";""
3ab3a2a8648463cfc92b64cba3f5b38557da6914943ceca94166bb00ff8ba586;10026365;International;International;"";"";""
62c0a23ea56924f46973eec6f789a749644efc07098b450acfa2c457b1e75fca;10020247;International;International;"";"";""
884f386dc06c3a85632b2cab6d07cb5b8528987abc7d8710c13869132608c99e;10026521;International;International;Quezon City;Não Informado;IR
5f22f4e23e16c3e8a4c1d44f103a18f67f45ed98d53a0277e4ceb543387b5fd5;10021270;International;International;"";"";""
5c3a4e47a0479f5563490261b319fd3b3afe8521a27d40039e511673f1f082ef;10000601;Domestic;Southern;Creedmoor;NC;US
c8e05c4976afbb1fb68df015c08b8564efbfa5cfa3b98e9ebb9d3504aed054ba;10000486;International;International;"";"";""
e82cb6c8063b78a73fbe565f313685cc1d711246dac44cfdc48305559b147926;10021145;Domestic;Southern;Brookhaven;MS;US
2e565537116a34067d47f535ea22b1af53fc53e23fb5d76ebf5f007cb44db30c;10002520;International;International;"";"";""
798953176523f51c51abd35d7b966ae63d05ecd5f08ca37c03497e760f795078;10027560;Domestic;Southern;Odessa;TX;US
0d7fbdf4b2c95ae41eca1690d00d86e874ad28a7dcbfe9abb2e778ad1616e14e;10025252;Domestic;Central;Elkhart;IN;US
ffe4fce9716e38b0b3f81cec99734fd8af5209726c8a0c693b1a424a0ae12c24;10004207;International;International;"";"";""
62ce6ca31f9337fbdd8f662b3e3fb62b356989988b5d67b777f299654cb60b4c;10023524;Domestic;Southern;Clemson;SC;US
a27ee378350f77c9c249b78534f51b6a9ec8f93978563c2148621d25a8729d8c;10027340;Domestic;Northeast;Salem;MA;US
2f385cbd7a7035bdb74701245a42e261bc29c367fab981bf9b77ca6195203c52;10016303;Domestic;Northeast;Buffalo;NY;US
36644634cec519c2e06dd23ea1598daa427271ee41677dce48f7a3d4fd4701a8;10007117;International;International;Taipei;Não Informado;AU
5f72b9cdfc72249798d6da2c7729c7cf2917dc20d92dab1761e0ff7bda3dd7e3;10025242;International;International;Seoul;Não Informado;AU
6c1c4ea3ded48cec6c0aeca19133726eb36bc406a183533e164e426152d43333;10025552;Domestic;Central;Southfield;MI;US
0456bfc8a805bd1597b44f67cf2a61146f4f38da7bd9366dd2878dd58e9a1a64;10026522;Domestic;Central;Fairmount;IN;US
96b723cceb4b9ed4bfdb98d45a1ec14a74750361081c2728e34ee34011c3c0a6;10013509;Domestic;Central;Joliet;IL;US
c02a57f6d8f90bfdd64e6d095324a8c476699b308f3e3eef54dbf7610e7a2571;10025284;Domestic;Western;Hayward;CA;US
76d29fe8f3023fae92d6ff455611a02e0c20e3d0a3ecfcb90cf24cf63142567c;10014495;Domestic;Western;Clackamas;OR;US
fa3569ad54ee31d1038529686336d71f99899a003e7047721f81563da22beb39;10024246;Domestic;Northeast;East Providence;RI;US
398b4d94d817d443fda08809e398b5154b0340c00e1a744752659f61111422dd;10010912;Domestic;Southern;Fort Smith;AR;US
2b5b7f50d9a030774ba195a934ff5755a619dd0a2a7531476b5c7634b1780389;10026009;International;International;Não Informado;Não Informado;AU
770d3cba88950e7ff09fe6bfe829703f318b01cfe61c20e8da5c8de270d0d319;10003720;Domestic;Northeast;Hermitage;PA;US
e7083d22c621a71e37948ded8ce117ba173a94f90d78593d03cb286accbccebd;10024006;Domestic;Central;Columbiana;OH;US
89f31b393f1ed6ec96cecc40a10333ed6f59c2764bd92b4d2038e70b54349927;10013252;Domestic;Southern;Irving;TX;US
b4e32aa6e915b615822e41f4282dd3cd246d60f6ada58f13251b5859aca90f9d;10009631;Domestic;Western;Corona;CA;US
e236dbfff348c9e45595dbad4995f5238594d32c86f35642823150754cf12a9c;10019913;International;Canada;Calgary;AB;CA
0a166564cc8ac5aec2b36d0d7efb2c6dbf94df0dff4a610a7f6f7f7cced26260;10014059;International;International;"";"";""
de994108a0e35d8e61cd0e0941bdd827141f1a4c1c82bf14a6ff8c756b0608b9;10016334;Domestic;Central;Overland Park;KS;US
87b2b402fa6731e2434caf8a6ecde99c5bebd5d6e8b41256b6d1c90c57cda6d6;10018603;International;International;Dubai;Não Informado;UK
2f214722f8d1d4eddd042902fdccb5e5a8f5cc63470c01462ecc3961e9b76327;10023221;Domestic;Central;Overland Park;KS;US
38b900cd9c96895fb24a0651df449095a9913cae3912e167bd52f377471f8aa6;10022167;International;International;Georgetown;Não Informado;AU
bf32806b6486f9ad14b637746d12f1f3bf35a5480575ad4481adbab5121d8bfb;10024034;International;Canada;Edmonton;AB;CA
65c8ea3932539fd1fdb2411d5e99e2bae263743ab14008a99f8d959b850423cf;10025039;Domestic;Central;Mentor;OH;US
47af080fa31f2050a00ce75c3f4eb5e9863a3f66e59c624a32bfb7211e73eb5c;10025239;International;International;Não Informado;Não Informado;UK
9309921cdb391275864f07721ecd1b0b34096789bab0fc64b2688854b23fbdae;10023212;Domestic;Western;Medford;OR;US
06baaa9f4a70c7feb85a718904a8210254ec722ea8a769ddb7990f18081bcbad;10013039;International;International;"";"";""
b8df131d166a47ee8678415af6d6729f3a3a1da88e9c31aee8dfc66a279898f1;10011360;International;International;"";"";""
886a7b105f9b23570eff248dacf43a60c1b14ef051ce6e6b66fc2f9deeece631;10024022;Domestic;Western;Irvine;CA;US
5a2398fa6d6b8c9d6fcbc87dbd353b2dc142ecf3d5399f208820bc96390fde13;10014802;International;International;"";"";""
81e100dec94df9f324c6793b240c32ff1a8a74261cff810316a7e74bd2796a5e;10027050;Domestic;Central;Milwaukie;WI;US
77e851f75cb12c1ae98b97c31ceccb80e98f54bee2e2d9fc16346a13c0b1b5a1;10000469;International;Canada;Montreal;QU;CA
6ed01240eafc4e8db0b2291e250b3cfa0be9e47c2757bf5786eb924c3cef65ff;10012851;International;International;"";"";""
793d4f9a2c5aa4dadc0e3e0acd692705b13e4eafa54571f584b9263353897431;10010855;International;International;"";"";""
6e842f594024c004733f3fbcc909fe30b91936bed86ecb28ebdffc76791c4d08;10009654;Domestic;Southern;Brownsville;TX;US
5705b55fe28c005b6cda809090fec94d5b5d45abe7c5c6ed6f344b3dec6d6028;10023023;Domestic;Central;Thief River Falls;MN;US
37504a71035fb2c1525ace2b93707977b181761328db86c4cda8ba57c1efed6a;10024255;Domestic;Central;Pontiac;MI;US
2354e1203dbcae01e3a18b406e99c2b0704beb74ef6d08ea565c6f7bc9310b2c;10009606;International;International;Kilsyth;Não Informado;UK
03320cf897ad9ca3fa95dc0416fa6f325c3801aeb894229092dc703f252f7998;10024009;Domestic;Southern;Tulsa;OK;US
8e4a801a2f13f52e81eefa7d1cf1d8c1f21755359e5fe79b2b8904336acba697;10011499;International;International;"";"";""
792b594e1910c57570d7005a50ea790fa14ae6bf64a549c4ccc7a23ab5a16a4e;10003857;International;International;"";"";""
2d85ecf740d67694c1d6c952b807868e9b069b3d5da74e214979161626bfc60c;10023785;Domestic;Central;Columbus;OH;US
fa43e1796a9387040470baa15d52d569f2d5d55952fc554dc025a8f02914fa23;10013426;International;International;"";"";""
4920c09794fc62aae55004b4c60a9d36cf2a3b22e687bb3d7b7e6e70b37cce43;10011997;Domestic;Northeast;Roanoke;VA;US
cf462c5295a4316d13920b0dd08cccaf8121bc76bd851a7ed3e42222c208772c;10002114;International;International;"";"";""
3a4a0082d5890048fcd1f543742e035e95a69abdaa2eca25dd7a43ed0f8334cf;10016588;Domestic;Southern;Schertz;TX;US
482cc7a260aa47d89e92da0d58e44efee4f3134a953455be855fc53592727888;10007123;Domestic;Southern;Little Rock;AR;US
092b09323b033b56a5e8c792062e8db309140f1ca8d94a2dda7b4d136086b6fa;10009697;Domestic;Southern;Orlando;FL;US
2fd6d5a6f90f17aacc9f457287846632eebb5b6d33426caa6229d9a0a30b7d5f;10011979;International;International;4100 Porto;Não Informado;UK
d5bb245fe9059e2aaff6b5b08b0aa28bacf2f4b2e415ff482336e47559688be8;10021006;International;International;"";"";""
44bada0c296b15b5b5b780ebc2d4e749c248073e84c3f10e2a96a0b33e589c12;10025040;Domestic;Southern;San Antonio;TX;US
f2feb151cc5817b7d002d46200c3571994a1e866b79e5ab70e130766ee620f05;10010923;International;International;Seocho-GU;Não Informado;AU
98e32b5caa365c8eabed018a37ee707c40a0b08b70529070816244d0f60e845a;10011089;International;International;"";"";""
e8a9dad3483c44c8bfc4512c4f123d2ad7df780f0cad4f95b7e0a7426fa37862;10010969;Domestic;Central;Elkhart;IN;US
29ef331a4f1b52d92565b9c8f23e7bd17d56b18d604a620a2177876c5ee0e133;10002137;International;International;"";"";""
737e65c8a7ead94415908125b86bb64e199209165a1b20c1b3cc6ba0a9b66000;10009652;International;Canada;Valcourt;QU;CA
4cc7eb1f52f5b84d4c57592fde697e5b39373a3216b101cfb44896b636546e85;10007122;Domestic;Southern;Buda;TX;US
1e7b1e6586da334f6cb4d28e88da4b24857c58dbee0aff26c602d66e89b2d9b1;10020684;Domestic;Southern;Montgomery;AL;US
e638b2c15796a6c69eb356a2dd6ce73494f01fe651c18131d77f60542a50d605;10025038;Domestic;Northeast;Mechanicsburg;PA;US
1c4b2e1e634b9dd1a74bdbec8bed75206de891fe8e02098079d739b09550fc17;10019400;Domestic;Central;Valparaiso;IN;US
65fb8a443ab4f6a22f31e8b34571125165eefdff0c1f28fa316a7389a3287fb3;10020413;Domestic;Southern;Okarche;OK;US
f5f2e9d41b4b37ddeb1d724dcf120b0a701f5b969f551f28aff99301434a099e;10014540;International;International;1980 Santiago;Não Informado;UK
351029035664adc722b335a1f8e0920e7345ea1f014c50d2189eb5de33d287e8;10025086;International;International;"";"";""
8dc012ddd9df51de991d31dd09173ca410a51cb4b6c2caa0057dc5e4ec654be0;10019952;International;International;"";"";""
55168ad1bef3307ce4ca5a02bf01e59c411147988330f144411c7cb4ffa5418b;10026438;International;International;"";"";""
d9e2096ee8ebf6ed8b7143ed91620aa35175efffbcd68ec0b01df31c367cc4a2;10021179;Domestic;Western;El Cajon;CA;US
9c3761478ef34d4e734030d370e80bd88924cc47d855293d2523e72bfaac0423;10009623;Domestic;Southern;Gretna;LA;US
80bfe4ab025d8b9c206fc28e5bfa921269d88d31f615f2c5ae22a0e6b073fc6a;10015030;Domestic;Western;Anchorage;AK;US
4aea9841f8025cf81431657d416a329568e2682ce0ff3fecbd672465d14c3b10;10024016;International;International;Kanagawa;Não Informado;AU
6232aa272378bbf4cce197045e48fec3f7f13779b8ec4cd809fadaae87b6d90d;10007183;International;International;"";"";""
6dcde00bbff2fa88d48466321e8afc008a6aea15aeb7c012b7a0ca7e9cb099a5;10020449;International;International;Santiago;Não Informado;UK
ae295bb94e124227670021d99197e6b418a4df3dc8bcafeed98a7618acbe0bf5;10009639;International;International;Industriestrasse 17;Não Informado;UK
76778ad34f312de697853428452eb75fccb7509636a3f299325a3a05acf659d8;10000456;International;Canada;Edmonton;AB;CA
ca7aeb18fe8de8b29bc8514845861e0ace5251aefa7550a69dbde26e5c42e746;10025298;International;Canada;Toronto;ON;CA
e69efd36ab2c3e6c8e6051554efe10a49b7d02abd1f61c0523d4f824e3e0a99a;10006093;Domestic;Central;Evansville;IN;US
16e20c62bd9e315a17f38e509de5f069466fb7443566c3102d6abb78cbe17bff;10026078;Domestic;Central;Bedford;OH;US
39f936d452dc3e8657e449ed01a6d75ce5d2df14445fd036cea816aecceee7d4;10022764;Domestic;Southern;Ocala;FL;US
a457532ff673a0e3da842ba37dfda02130bfce50a38cacc65603216dab9f6bb5;10000474;Domestic;Central;Des Moines;IA;US
524e2efca4c5b912f2e16e665ae96385a3572c5ceb6bcd188d57a71efd43ec1b;10020663;Domestic;Western;Sparks;NV;US
62ea3252e07004b421daf21fb4689732f739120cfcec67cfe82235629f88176d;10021158;International;Canada;Surrey;BC;CA
e0b08db1506174b178397dbf344e6fd1ec29de1cbfa5ab33ea6497dc33f24fb7;10024930;International;International;"";"";""
47cc659c2ab513ed1625e68afbd6fae6e29d9dad5aa21d1f308a74feb654d3e7;10018665;Domestic;Northeast;Wester Chester;PA;US
30bc79ea7077e37416ed28208bf50678b36827ca5eecc7018df91e31ce37ff67;10020192;Domestic;Western;Sacramento;CA;US
0c660ac6eda4a7dca953d1adbb89720ffc9b64e4b3b9b471489e4ef0e98132e9;10015275;Domestic;Central;Marshfield;WI;US
3d03db7ff7be46d55c4d24c290e4e1b759782b078c5eec93ae35dca52659807b;10021411;International;International;"";"";""
0c300fcffc670a5bdd9ed393f7f8ba40e438933a8566bd55adaa553e142ed63b;10023275;Domestic;Western;Portland;OR;US
5f07e41ef641fb8eaa47e2529e78d4f2f42d662037fe34f1fa1a7736e57206da;10019879;Domestic;Southern;Duluth;GA;US
85a5d1914b6ab90bfd091d9b883f04ec69d9a882a014713103006d177750d502;10021203;Domestic;Western;Costa Mesa;CA;US
ba2b03fb438bd3bee389a3f5ff899a37306d393daccd881918af80d98c92faf2;10021668;Domestic;Central;Independence;MO;US
117e5670f4736a296e2e2048c43dc464b0b582f4c413fa9ec5a8c2f24741d456;10011981;Domestic;Western;Missoula;MT;US
880fac693164138f7b74c4c6a37831ff51ac1e74f6f296eea798b2ffdaabe3c7;10008602;Domestic;Northeast;Wells;ME;US
fe4235f9583429cd114fa1eb72716817e384d1a142b3fece9dfa5ada7174cc1f;10016548;Domestic;Southern;Mobile;AL;US
de1c6ca1735ee93bca21b51a3906189941b02b2f8eca8e097c1135a388739218;10022730;Domestic;Central;Warren;MI;US
a6169eaea98840b3f8ad216cddad956957fd73aa9d3466f45b326e10ee3440f5;10021107;International;International;"";"";""
5201edc361203a40b3e638f9a9f432ba3f31931ca48f97aafdfd9ae362316573;10025052;International;International;Songtan SI;Não Informado;AU
750fd51f7efb7e6cb920365071680520bf56042a4ef3e4d82e4f15340dca54b5;10012422;Domestic;Southern;Saginaw;AL;US
6e60ec1b46e7540f8a39206d9fc68be22281d8c10de539ec8b27f51492430a0d;10013238;Domestic;Central;Janesville;WI;US
e57939bf7986201a344036be17abe41f23ccb839df0466acdf33416614a276e1;10008134;Domestic;Northeast;Petersburg;VA;US
1ea6c038a7bbf0ae7623b58f471798b37e45c28573a8bf6cf928646ce87f391a;10025737;International;International;"";"";""
dcc87dc3ac8954bf705a1389822775ec5cfa2809caa7e28edf4d4fdcfbc72062;10025158;International;International;"";"";""
30700c4a598e988b2de0239b92eb5acccd6f8c01600b62e516596ade04f22300;10027053;Domestic;Central;Raleigh;IL;US
a4eac974b744d858558ce7321a424862f1d6b1adf21779869dd207c26e9c7436;10021204;International;Canada;Toronto;ON;CA
eee9a2aec40413b358493621790937f204a5af5e52fc4ae51f9aff7ee642f893;10020364;International;International;"";"";""
fdbda7cb270641163e3e0bf5fda12049c24fa3ba699af0e6e4555cd663b9a618;10009672;Domestic;Western;Phoenix;AZ;US
242d43c82ecebc41feb17c76412302f5fa1f0cc424e751fb56d69598b6707f65;10023495;International;International;"";"";""
af5f69113977224cb089a24b2cc5d53fd26e1cccefcc45ca8842efa13ccdda45;10017072;Domestic;Central;Chicago;IL;US
477b24cd2772f1aa0f2344eca319ab0aec6a6f14be3a0d7865ab5709d58cbcc5;10026532;Domestic;Central;Garner;IA;US
78525379ef99b3e578f8f3eaa1c0d8805936d86af0251eb5557094b05a56d41a;10020849;International;International;"";"";""
043eb6823edda78bfc286c01259d7d7d926cd6dfdd9faf1831e07d8e891d13d2;10021286;International;International;"";"";""
046a441be87f02a2d723a74cfe593cd931f962aa878d7695f97ff07df616f580;10027082;International;Canada;Edmonton;AB;CA
1c9a8983bcb642e179e8a6ee9d67b8e7ad2269b8e41812fc8f4fe2d9d8135c1a;10021911;Domestic;Southern;Te Rapa Hamilton;MS;US
902fed665ffb837505f09692e335b4489a3a8492801a0ccdb8e204b950512d91;10013127;International;International;"";"";""
537b991b8cd34be7c2d75989ffc50fb87e8aea67053fbaf94e11452a74ce67bb;10018867;Domestic;Central;Flint;MI;US
1cc4fdebf040388788c642ce214203ced16e83fab0ed94b5552063cf60bce4c0;10025287;Domestic;Central;Brookfield;WI;US
4fb1cde165c585d55233db1caa5ff5e47f9a89edadf740274c78011275a15707;10007120;Domestic;Western;Rexburg;ID;US
48f2092a66dab59f616e9cb182be21682cde79c4a8dd908acc70ebaa7513356f;10012425;Domestic;Central;Oslo;MN;US
76aab4139f1749424097e9c8b823faacb62d647f0051d52373031d8b92280997;10002136;International;International;"";"";""
05e9dc3966e1119623840360ca1cbf818755251f55ce199fa70258a3511b74ab;10023513;Domestic;Western;Stockton;CA;US
0e43d1c05339fb601a9a7bef959ac14418e45f075f616ed2de83fda4d091f328;10021459;Domestic;Southern;Olive Branch;MS;US
b3853799dd94c91da4d13bc1fe0757d00afc73c30d28ce36e5909e378260e854;10000478;Domestic;Southern;Little Rock;AR;US
edf23d1c8ceb1a2861ef1d70b24f406e0513e0576b27be07eee9bd066054a400;10018871;Domestic;Central;Livonia;MI;US
1d28378f9392383d71f88ddd909cc33ecdfac1fd367b643a901a0db2cd876200;10009656;Domestic;Western;Trinity Center;CA;US
19ba8d71fe6cfe281dd9160a0a73c4d0d485f152556a7a2076210f230b547aa7;10020281;International;International;"";"";""
a00f546870cc53bea40c45825918550840ee0110c14bec369b019cd30b330a6a;10020982;International;International;"";"";""
db9dee3acf642e981f17a793d743735735a843f8a322b6048bad7492a60efe87;10018371;International;International;00-394 Warsaw;Não Informado;UK
e2230372c047c79cbb424ad44fa702ec4f2c126659c78ed7e4ad44b9259ce1b8;10023703;International;International;Istanbul;Não Informado;AU
5c70c9fa6da085e74c8e0d6a756b44625bf9ed059bc6eec7e8f8a12df31cd723;10021750;International;International;"";"";""
7f4261bdd5f915ea2dcdb872be82463731e4bc9665bd2335246433804f38e63e;10025051;Domestic;Western;Anchorage;AK;US
c78c1646df6169b04c7a8a63fbddd52d019377fbbb5b7c21fa4efb9a72e394f3;10003882;International;International;"";"";""
620e1abd8f13d7b4c94a416b80a5c8d30231218402798a9d4473c05b5a8f271f;10025769;Domestic;Western;Redding;CA;US
02f792a7e7017327b766cc37c6382786c1ceee736db8645ebba6d255cfe5beab;10015793;Domestic;Western;Sacramento;CA;US
8fc6f12e40aede04835913e3d19376f73afc737ebd164d13512ee5a91c665229;10011724;International;Canada;Ingersoll;ON;CA
0e680caa6e5668c3c34d585f89d04ff5ccb4d84f919433523f7b23dc1f727611;10015325;International;International;"";"";""
dc3182d73abeb4ec084d4604545345eeddf1f719046102baedcafe776b499006;10009669;International;International;Não Informado;Não Informado;UK
eaa295773979ac17b2eba22e5b81fbf455d73e4eadfb1c58ceb085fd9ca092e5;10024477;International;International;Santa Cruz;Não Informado;UK
ddf4bc03acb9ae4665e3b650b4a703fa1f7664a600763e476f1fae37876c4a7e;10025237;International;Canada;Oakville;ON;CA
b67bc7d7b056b8f70ef0379a34c9ddeebaf925bdf78ff6fcb25f527e56ef25c0;10007448;International;International;"";"";""
ca95497774614dd1ce9c5af2fcb55fa525ec21d26bfad5d1cbe0d650c75c48c7;10013052;International;International;"";"";""
a977162f7b99f98fa0595f718251d33c2ed9e49376669e6c13c84d9f2f8717d1;10019194;International;International;"";"";""
93453bf309fb7ceb6c0d7e56e1882f505645470198ff8a26e25ab4293f692e60;10026268;International;Canada;Surrey;BC;CA
f405fc4ff6e731ca5c8b6b462cdde8ac2827669ab2cd2dd4a0646d03f068e41b;10011018;International;International;"";"";""
d944e9b39a61da531373d17158d624088a3724ee310b5bcabe2e094081bcf23f;10003749;International;International;"";"";""
9ae8a01ee54b764412c36664a3239cf45a8d01cbae6b1a5e9616f0e0aa3f7810;10001818;International;International;"";"";""
016f3f9f4c4e016667425e5caa2fc71df7659ab7cb6aed82e6c2effb8e534aca;10019514;International;International;"";"";""
95fbd6261a93313bf9fd36b3d590d25ffafd43d5a598c555f78010d163c63133;10026023;International;International;"";"";""
b0903c3717cbf2f0a64255f36ec1204ac4b8716957d2f2a8d5148ff4d95e3412;10025022;International;International;West Midlands;Não Informado;UK
969080216697cbd3b9624715ffa415c23186eb9360462900ec27e7cc596c6a2b;10021380;International;International;"";"";""
abab5d75385633fc8d8adb3a2360f0d85cd03e1619f2548a8190efeddf5b5ab3;10021297;International;International;"";"";""
94d7c9eebf57654b1d3baa9a317f3057e08197317a86f187ec47528896a20b13;10012161;International;International;"";"";""
1eb137fdcb13370707e012976c70bfc9847c301bf6f22004f53cb2d47efb5782;10025467;International;International;"";"";""
72c1b2573be217bc4bf69aa86ce6f875204401c9cd4fa7a95674e9f8a6128943;10020227;International;International;"";"";""
43b7385eaa5cdf6f14fd918cf6441cb7b95c0bdf8adc687d1a5b77b3f0659255;10013188;Domestic;Southern;Charlotte;NC;US
12ce989157c5ebe6f3b3f56c35be554533fa6210fab79a07777b40b34b246e58;10017307;International;Canada;Anjou;QU;CA
c0242b74a3b5e8509c424412d5bf8520f02fa08b986438e2ae800c9a1508d984;10020914;Domestic;Southern;Calhoun;LA;US
76da48d5e9ea976cbc131495bada6426d547a7e4f4220f5972553fd78dd88a3e;10025247;Domestic;Northeast;Pittsburgh;PA;US
80843894c6c51d5780bcc3ed3900a61212d8cce1bc36b7bcfc53e2e35bba4647;10024915;International;International;"";"";""
66b5f9a9f2baee2a925b120fac0ded3ae4cff875f29488f1eeb4b1010ccfcbc1;10020388;Domestic;Northeast;Glen Burnie;MD;US
ab4191d20b843134a155cae971b725184a17a93700ea2d3537cfa8631719fe94;10020491;International;International;"";"";""
0808365064aa11f9aece83271b1565a54a672fcb74d791ac0d828f4d93b0a8b2;10002526;International;International;EE 0026 Tallinn;Não Informado;UK
b54ed88b12af67daa47ba56a6d242f0a37f8f3078f4b9b2543c0891453ea9ba6;10020515;International;International;"";"";""
906b84876a7f972d3179efec9c2c00784e4f7a09b7b9926ed24768bdc9406c49;10021300;International;International;"";"";""
943df64623cbc376575cff1a7f9fdf540ab86e26a765bdcb81b0b941c54a7794;10006037;Domestic;Southern;Miami;FL;US
df542ed53b2ba70c1288bf31f703332d6d41b2314fe4e4057a9351738dbe95fe;10019469;International;International;"";"";""
437ceda97eadd6ce6b67d55fc13cfd9b7d78e909c66294e8f7809328904ce786;10025571;Domestic;Central;Des Moines;IA;US
52e12cda4e327e033f46a9aae20b1be063e14960087446159c0a73a40888aceb;10020193;International;International;Não Informado;Não Informado;UK
45bde800d9e459da186177587251b515f1c88084d105e725e865f4f877b2e57c;10009657;Domestic;Northeast;Lewiston;ME;US
b3391297844c7fff4d4d2074e99ccd4bf330f7c95fa42e3219d842d1850d7db3;10002506;Domestic;Western;Salt Lake City;UT;US
c7d0d683b3c114973299f4190923d0c36a0f66479301675cbbbee505351a2ecb;10025023;International;Canada;Saskatoon;SK;CA
63d78309e7846493ef04454e01265a65d6cb4028f512af3f44bc405621783911;10023715;Domestic;Central;Plainfield;IN;US
9b127b2f3dbb9073dd41e8459fb8f25a81b0141e6f266ece483dd3411d05a065;10022444;Domestic;Central;Livonia;MI;US
b701e0fcc0b860be2f642299a30434e2a854035adb6e1d43409defa6077c4bc4;10012328;International;International;"";"";""
4bd633872c19ea46522f6ed3356447dce8c8e84a0b3037865d1eebadf48a2f8c;10009653;International;Canada;Mississauga;ON;CA
d663a3847a791a82b582ec1ac8a6856cede878129434a4fa67a40d870ac28417;10025034;Domestic;Western;Corona;CA;US
5b002abdc2815412148115bdf451edfbdb4cb75f5cf85e0ac74c4155555254e0;10001786;International;International;"";"";""
89567d0b99c18e2b29875efa0f1c74f78f365e8be45b677f884d78b6ed55bbbe;10020184;Domestic;Southern;Smyrna;TN;US
b3a5c3e97738dbe07d55958e8de697bf4a09064e5387b258f4a5abeffdb42945;10018363;International;International;Panama Rep De Panama;Não Informado;IR
0ae81c5d081c7dbaaf015508a650363811d62ab6225172f21f562a4786abfd9f;10022725;Domestic;Southern;Norcross;GA;US
ac0da307ca0d3f14b84c5ff85679c402ae4ae75aae0f018a66572414dd1f0fde;10023516;Domestic;Southern;Miami;FL;US
6fddf8c3512accb8fff25a58f07bb1f672fe033d6a307e314d5b3b1696bd6881;10004516;International;International;Lighthorne Warwick;Não Informado;UK
8a0b19636228b9ba46092a9b52cea76ae24a00b975aacb9499e8137ba10cb5c3;10014739;Domestic;Southern;Tulsa;OK;US
b5d74019b2b99018dbba922a0cfbad7e67b2fa24ffb4d0ab0016c4aed870e2d1;10025250;Domestic;Southern;Ooltewah;TN;US
10c15af8cde39911a2d4803cc4711a33fea6817433ad481e316d34afb5c886fe;10020266;International;International;"";"";""
59becc59d6095866f4a7b9152624483d949e675d3164e7dc8a98ace4334b9fdc;10014533;Domestic;Central;Aurora;IL;US
d1cb872851b3c63fd5162af7c8232ba54430e4fe4d02768ed484d86a02f1c383;10025515;Domestic;Southern;Jackson;MS;US
e4446910ab3169396f9df44566861c19ca65dbb5945d3b7bb0fb7d103cb00a39;10009907;Domestic;Southern;Elizabethtown;KY;US
7f6734ab438966eff4618bc290c2dc716ab785329332662ac0bfd363f4aa2b08;10019900;Domestic;Western;Sacramento;CA;US
6c4cabb13ce66f4a08b6795459e8512b67c46aa1d70ab24758fd5e2db7dc0e29;10012600;International;International;"";"";""
7a3b270b0f7bd794d5225ebcaa6ad8e7d9f37b54d03f1a0702598ee2b8f5b8d8;10002765;Domestic;Southern;Hialeah;FL;US
5edb15588b8a8852a0b4bee14d12df2ad3786ad2c8569b897912eed2970d2b48;10008593;Domestic;Central;Highland;IL;US
41b1c2dd673858b46f1ede0594fcabddf7b6a9751c3d4d5192b62d88e4766819;10013870;International;International;"";"";""
ce905ad973b2ea50ae01f313fc6b6dbcebe9f6093836c0f8f89dd9a95ea83dd1;10013232;Domestic;Central;Milwaukie;WI;US
0964d4f423cb212593f633d7bc8733a77331e81fdd31b9ddce316c00db74ad3f;10010698;Domestic;Western;Gardena;CA;US
6ada9a713a498cffa212ce8e24909f4cfeaa7c87828f2cc901eae992bbc71f40;10027583;Domestic;Central;Morton;IL;US
607883e259d9dd50855d704377135a8cf8629f342c6cef54aeda316f751f1853;10025495;Domestic;Southern;Birmingham;AL;US
368979e25a984183d05ef3478a293dcd29a56abc8fae1f84613873ba408103d7;10020446;Domestic;Central;Pontiac;MI;US
5b8f5c783d3d188e6e946ad7e41b64560846856432cc4a3349568cccf9a3cb5f;10013670;International;International;"";"";""
a07bcfc7f44a0c81c95ab27f3b0478ddd453d3917f80d4a6cadeb63c5cb31812;10025024;International;International;"";"";""
f2c725b4521c435a0d5f8a0b5d46a19d90a3619aad4e401faa3f8049c3debb19;10026055;Domestic;Central;Eau Claire;WI;US
0508031b89e483bba4d4ae958066dfe6a4b40ad4ed2038e6cf05bbf0a9faef12;10002154;International;International;"";"";""
323dce37f5bcb874959c7b50548d585fdb4f2bda787b4557c7b6e88f4fda31c0;10027348;Domestic;Southern;Tampa;FL;US
52bfb597d1bb0a9cddccf42639972a3f40b8c10a47e5f04e711d266f547e461b;10002709;Domestic;Western;Albany;OR;US
fcf05cab11a8155b5073a96f27f39d879112e712921ed96a5abe58a1960a48f6;10011345;International;International;"";"";""
f6c77f3ed9a345e177e13924390822560b0aad655d6d164c69f976d0a8ca4088;10015783;Domestic;Northeast;Philadelphia;PA;US
a19d15b7eff054951aa98e3cf6388660b48be5fd1808607013bbb544fbbd00c8;10015253;International;International;"";"";""
3e0d138bc00251f28aaaf7f4dfc002b52b3c5ca273f1d3af02bb4010c6ddafae;10026038;International;International;"";"";""
3fb0373d301e23a420ee35d1df4fc1ce46308594fe67f24ad55c591d29531fef;10027381;Domestic;Western;Tumwater;WA;US
aa7ecaebab59625170c3c0fe8f86b90b5b70c16840f9cba2b2497ddd85e027d9;10019880;Domestic;Northeast;Somerset;NJ;US
6356e29a7ad2e076efa236930f5f5708c154a2197c3fa81a64557cad31b66a7a;10020715;International;International;Linares (Jaen);Não Informado;UK
2b1c95131d77a3d5fa38bcaa337a0d0f8772b3c619885421ede305d8cadc04cb;10021977;Domestic;Central;Overland Park;KS;US
d86014d0cbe470af10fde8b7fdf94f144fdcb19aae43339a2ec8010862d3110a;10026336;Domestic;Southern;Columbia;SC;US
5fc64e2f36d5e44df18a0a0db15a4c4658c06c2b1bd235df44cce6b9e9674906;10010717;Domestic;Central;Waterville;KS;US
9a41a6b174cb6a70729dbac19b08ff8b55cfce340af8f4236b8d4fba3418aeaf;10019909;Domestic;Central;Shawano;WI;US
26e1d9957f47ff5e433c1cc229f84a4b5924ea88c361db40cf70aa252e5db473;10013312;International;International;"";"";""
f50913bdb92999036caaf75ccdc5cad2d387ea536f30e36bad70bb8be3b41e5e;10011546;International;International;"";"";""
8a6e5dff1bdff185518828bc34ebe740af9adb36b77e26863adebcfafba98b24;10009647;Domestic;Western;Sacramento;CA;US
c9c7369936314d192da6897d630cada7d3daa4cdce73d191adaa925ff38fe876;10012369;International;International;"";"";""
6055758fb8740ea37edd380ef4013b6e1ef3493db9283ee5e5cf0d19ca8daef3;10023783;Domestic;Southern;Pine Bluff;AR;US
210d2554801e947ee1b7b443f5f7499318876ce95056d8124ca79db362a79882;10022450;Domestic;Central;Overland Park;KS;US
c8cc807242f827b1801af69bd6413241ca3445712165db28585638e2db988e2b;10025061;Domestic;Central;Canton;OH;US
110c4b35fe7a9553721d6284eb89b4eec2e4a000127ca9bf7553b7a33b78133e;10002155;International;International;"";"";""
7b012d8babc3bc2be01c0487d447496c02d4dfebe4bfc8ba5325e2e56f221497;10018877;International;International;Beirut;Não Informado;AU
a18791522b3f1875d3ef9db6d54f27305117bf83f3dfe627f92aae3366106a66;10023793;Domestic;Southern;Holden;LA;US
7160e16ab3d7990fb256dca72d54a036533f1a5726897391c06af3437646d427;10023003;Domestic;Central;Coldwater;MI;US
7bdd05726612e1697b241776dc16c854adedc1eda53d76bed16aa82be4f1ecb1;10000455;Domestic;Western;Huntington Beach;CA;US
f489d1c062dea21fa49039e799ed92d08e0cb9acc97ac279daf3310cab755e3e;10002128;International;International;"";"";""
d24d250e164434188d72d5ee2f150a71fcb0bee817dac4b06287fc86a8cd24dc;10008893;Domestic;Western;Yakama;WA;US
6d367cb47e80a441a1588d59a88fcdde3443153864d6d5505678933141d3f70f;10026581;Domestic;Southern;Savannah;GA;US
bd4f2ebbe208fd669e6bbee58335cab8b097fbed546d3df81213cab1b4ddbbf7;10013061;International;International;"";"";""
c81294b96bf079c3830bb9c9188705d88f6fc8542094542a4c2fb9317441f473;10010990;International;International;"";"";""
7ffbeda8c8310d82538af7a1ad6f9a3f138e87519e1ac125138162c432052933;10007564;Domestic;Southern;Cleveland;TX;US
033fafa0d7e6f994629c0a0c1f4897869add24d5c12ef0d73b0fd30d0f17e71f;10020962;Domestic;Northeast;Mercer;PA;US
d4fd9e2d1ffb5a661b5d61f1cd8c0eb7a05cfcf697e869986b9bc5002c116eb2;10024270;Domestic;Western;Maxwell;CA;US
061486c5ca0801437d25444fcf5d6e3621ccef690afe35d9e4fc9be9321942d5;10006916;International;International;"";"";""
95e03790620e866fd17b2823f5c3f9d8c795d8977da447b94decfc03e6e7792f;10009676;Domestic;Central;Kalamazoo;MI;US
4f4c74b254f86cffd9cab6f9487e080ee36a3e93eba77cb40027eabb7ff81161;10000462;Domestic;Central;Hazelwood;MO;US
ede366c46f941a1bf6d78d888d476422961b70409dcd6ffe18c831cd59de20bd;10025291;Domestic;Central;Dover;OH;US
f5ef53b5a2156e00a330bffcf37a79e6a25ed4c33a01a568aea2ceb7e30103d2;10023241;Domestic;Southern;North Little Rock;AR;US
4a38150f9cf3b1109141303b02caac707d8a82f9136f209a5fd3da63f0ac29d0;10015824;Domestic;Central;South Bend;IN;US
df408e89b1e0dc030ca05e72a245e75842be462af9867448dabcba4c45f0e036;10002149;International;International;"";"";""
48a824970bdb9b3e69b062ef3e8674371a7845d9c538d2ce69a3b8668d4a844f;10012158;International;International;"";"";""
25e9c116b47af2d5915520c919f8e1f8c767b3c706cb24c935d3dd396e1e2237;10021223;Domestic;Central;Wayne;MI;US
6c80a12ea0b2ae39b9c3b85f5f681349ff9e301a18fd60cc4eb772d2a147d083;10015886;International;International;"";"";""
d8452c436236fc215f21b4a4043998ff53008f21724104c6660f70376a4aaa7a;10021111;International;International;"";"";""
1e4d97f11aeed8a20051681019a741644271e5adc59b6d08773a36541feb0d46;10023538;Domestic;Southern;Fort Worth;TX;US
78efccdcb624f8da4afa63db5af5952d674d5124b5fcd1ecbd19fad72788e196;10000473;Domestic;Western;Rancho Cordova;CA;US
6c2124f08b59da98ec6ea650e9c40d09b1d19bbfcf65c3cb638aa78102418bf2;10012715;Domestic;Northeast;Exeter;PA;US
41bb6362a780e747676a4c45fbe8df970c6ec27d9b5799d1c0d4681c753162a7;10025791;Domestic;Western;Prineville;OR;US
4792bafd1e15f61bf4e9eaae563d790efebb80018dc20fdffe36b23f14a8db0d;10024880;International;International;"";"";""
bc73a4be693835742d2a17995629f6a18a17c2c7479a63023ff7085052478157;10002153;International;International;"";"";""
d2f4c24de2b29a5f9aaf7486fd6b6a965e7a2f202c1830cdb3ecbf0553058e22;10021494;International;International;"";"";""
741634163ef6f96942a7d3a4dd0663476aa62a8476ac9e322f7f2f18c36c1d08;10016858;Domestic;Western;Beaverton;OR;US
e272b08e871152d40a50ecfcada133b1549279177574af808be62038aa1606ca;10021472;International;Canada;Surrey;BC;CA
33df91f008fd470608103f49f3550e64346f3f11132ba5dd6f31347101763f74;10022201;International;International;Carcas;Não Informado;UK
7f2deb2d4260b531b51764aa277f0e3417d6d6e8c7ed21310bbb6ae9cd60ccd4;10009645;International;International;"";"";""
632d1d8042f9d43705b90d2c3fa26676edbeb654b50c0fc8df8815242c43ce66;10016047;Domestic;Southern;Nashville;TN;US
8c04c33e6fe2066e6f4c41db7260fe150d3c9337eccb8d6220023a5edd968ccb;10021996;Domestic;Northeast;Milton;PA;US
709f48a01884be5742d599232c919dcb9fb80b6c66c2d518f5c12a33f008c51f;10005099;International;International;"";"";""
a5c3d77df003b1776b0d2e344b4c6110de70a94c3cc88e1b93ce41236145d017;10020931;Domestic;Western;Bozeman;MT;US
a1e87f67ada7570e3a36eca86d7901216dc3795bb02eafdb58bc6a6f89deb711;10011093;International;International;"";"";""
b114c6ecf7dbadc6ea3b4b8689d34332c5cb4dfb46ec6faa0ace4a0c412e3a28;10024924;International;International;"";"";""
da4432ab6a3e2c41021a03d6fcfcfbd8631a56fdc5ef417e52553155cb1fe576;10016564;Domestic;Central;Traverse City;MI;US
d3e70619c696bf62dbb29c63b1fff313faaea7ffafb2f71bfe43c8720629d07f;10022456;Domestic;Western;Rancho Cordova;CA;US
2657cb485eae4889cba1e5651024c7566e8a745a67ae7061c5f3fcc56e069339;10017290;International;International;Bogota;Não Informado;UK
67b72a688431c45d47595f0b73db26107467aede71fcf691f0dec3527a3da957;10008638;Domestic;Northeast;Milesburg;PA;US
b757afbf6b77f8bfeb703be8f0fd58844b2c61a19c671190e1a294b25b66102f;10001103;International;International;"";"";""
ef15cd7430245368b7d13427644c22422afe2256e6310ee28cbc6a4507bc4f9d;10025288;International;International;Furstentum;Não Informado;AU
cd19d14169cf5cbf0056d64621d85ba74d6cca3495c822f8241aa348fdd624dc;10005922;International;International;"";"";""
a6e8f139eebcc3c1d6e0f7413b2c27b59337caf83d93758196f716ae076bb7e4;10026006;International;Canada;Calgary;AB;CA
644e643f384e6cc9c4e16f3acf36877b9a4f8f599e710b2e2cadaed0d5fa4672;10025036;Domestic;Central;Kansas City;MO;US
c93a2a8c94d2a56dc269ba0e29d0bbf9a32580188b8d545dd7332cad95b8a01a;10022962;International;International;"";"";""
3ae32539db73162e6915b4af2dc24e306e677596e914f33c8f6b56d879e044da;10027356;Domestic;Central;Grand Rapids;MN;US
96e9721b6cf99ad0483c239d49cfc4d5027afbbab94ce9fa6033d0aad7fa2f79;10014264;Domestic;Central;Springfield;MO;US
20602a7cc89346ea1b15f1605a1d25b92549d7c8ad686c7fe07181100535d67b;10018644;Domestic;Central;Overland Park;KS;US
cebb6f353a54236194cd87b9e41f99d4958439967e387630b16a4a3e1755bfb8;10022687;International;Canada;Burnaby;BC;CA
fec530b0a8a48c92454547aa76fcb70116c4dd6fce19b600e04e84ba312e588a;10024260;Domestic;Western;Spokane;WA;US
4b3c3a2cf8c08c29c8c1e3b223958dfea047c915b58cbd52a8a490d7f89bac5e;10020672;International;International;N-0598 Oslo;Não Informado;IR
b1178bf8e6affaf53c49e0efa0a3c03fcc19729429b37c9ccb2e72a9985601a1;10025299;International;Canada;Montreal;QU;CA
0e9843866ee282d41c4a9411a108d0311d0bcf3d15d6d3d8520eb23bcb7ef17f;10025032;International;Canada;Montreal;QU;CA
5c9099c4a51d437b30daefa12029dd770811f6518819fb571b4cfe2b8128d181;10000471;International;International;Jeddah;Não Informado;AU
eb2b836646ae0323041ed80781f1003863210d3aa1dfcec7d53e527140a6b255;10018868;International;International;Não Informado;Não Informado;AU
e843ccd81f0df7e63719152404e59e998f1c80d29f60ee668a3848e53d55e556;10022166;International;International;"";"";""
ba58897572cd5ca46af9a106005783bd62cbe2214321ba2e5fa76b03abb0a25c;10004255;International;International;Seoul;Não Informado;AU
3d7ca6c04bfaaf1b428828bd2066a949fcde61578bc565de3b56a50ba9e7fb3d;10014779;Domestic;Northeast;Fairview;NJ;US
ca3fb91928028c3d890db87786374721ae4d1fb458aa8f35f46d639d46465d20;10006919;International;International;"";"";""
224be33324b44fa5668785b7553e584040728b13c0b89f3129d98b09f87bbc5d;10019682;Domestic;Central;Lennox;SD;US
a660be2b3a3b3f4add9154816aa7e8ed67717a1abffb7431b501dcbe4aa1c430;10025418;International;International;"";"";""
d11156ad9344c0ee984389089e6026a891e77021593a368dbfdb611c3e70e3a1;10026294;International;International;"";"";""
581b3c6eaf4edf7cc84e3b1b6f97f33674d4dc9b6ccc60c87c131a05ed216a97;10006805;Domestic;Southern;Miami;FL;US
df5e2fe66b5a41761d885efccfcf1fbe1aa18335d2614d2bce98a3344c37cddf;10025778;Domestic;Western;Pomona;CA;US
6c0637797de28158a9b0a07b464487b4cb928fd802f192a836a0d802595f7307;10025241;International;International;Hamamatsu City;Não Informado;AU
d783587ef46f3aba8ac1c206cf8b840574e642343dbf19b9fcd0c1ceab39c260;10007457;International;International;"";"";""
2b004199fbd57fe9a82d4ba33475dee0143c27efb559d93ac1c611b41fb219f2;10025246;International;Canada;Winnepeg;MB;CA
49906b040b67b9127d25e723fa1c2472aa61d57f31c83a9309ba1f749f6e05aa;10021283;International;International;"";"";""
18d6de6f9b8743eb7d3d906172025649487a38c36738ee4308cce90155bbccb5;10007121;Domestic;Central;St Louis Park;MN;US
16e758e07bca7e6deeb6fea92de383cebe7e79609338c9cbb572c5fd23ab6949;10000481;Domestic;Central;Chicago;IL;US
6901daa6bd31f85b753d21811ee64ead5762d8f78799b25565dcc3a76d9f2fd4;10025305;Domestic;Western;Colorado Springs;CO;US
0404ffc5ee3f698deb3b97325f65b1d3e38b79f7003c9bd2cceb4a4fec149f4d;10002144;International;International;"";"";""
db8287a25a6eda846ec4ca8e86c403fdf4d645d32ae97be2ffcf04038d34bcea;10013899;International;International;"";"";""
3f02c23c1592d84ab4a47f6f66938744934063dfaaf7f320139278dc1ab85c5a;10020306;International;International;"";"";""
5d5d5249df0932b0fd16ead8b1466c0181d024c3bfb05022c3815b3188ddd02f;10005919;International;International;"";"";""
c7d32963ad8704392070824988a53f20929735ed6bb13ddb3ba2c9c76b5f7dbe;10011734;Domestic;Southern;Atlanta;GA;US
dc6637fe5387f2bc6cb3790a52717517df3a3b809c0a733931925e980471e4d6;10000496;International;International;"";"";""
de9c9c7427169e0fc6bcf8671751a1f6aa2b435f673daf780290d489b0e0e096;10002140;International;International;"";"";""
3ab797aee79622f626d4d25d923d3890d8ee243d5176c7b9e9e21619e2f8ebf1;10025267;International;International;"";"";""
84ede95a8b4b857fcd5a5d2711a6baf2510ff669d46ce3fc70f812084273fac8;10025289;Domestic;Western;Fresno;CA;US
1c61f9a0374062f7309a9c4d87d41969bb61da68ab55ab028c4d8c5099d0bedf;10019897;Domestic;Southern;El Paso;TX;US
678c2eef8e762dcb669ba0d2737df2b93581dcf4df4e5a728bef3aa73e7be569;10004256;Domestic;Western;Portland;OR;US
9553fa5c480491aae227c7fa09489252958618aef8185f80065950fdfe53e933;10005861;International;International;"";"";""
855f8c4ea447fb0e7858fcfcddf96e75be277e2e4fa2636b3428153dd0192526;10021804;International;International;"";"";""
85af59149004e65fd8925c8bd443bbf5462e1ac063696f486594585f0c0b1ea2;10016780;International;International;"";"";""
3f531858b022d993af8898bce82714a2a86f2770459d4f4daac7e5b9cb5b869b;10022470;Domestic;Southern;Ormond Beach;FL;US
d9c6e2a8cb0f7aaa228e700a52475a0b7dbad374dbf496e033b927dc25a85c1f;10002150;International;International;"";"";""
36db3eae63139fcb588c5b371082adf0ff3fa860e66ac6ae426ff1f3acafc598;10020256;International;International;"";"";""
a33ecf5a39fb9f3002e44cd2a32b19e7e49c1119a837ac37bc113115debf1eaa;10024725;Domestic;Southern;Jasper;TX;US
236c53534001bebd4e21bfe144789e8ea5ea96abc1c1e8a40003c72b4537cec8;10009650;International;International;La Paz;Não Informado;UK
02cf6e9cb3d62a58823e7e26ef02454c35ee2653f2383e6fdb9990c25a04c0cf;10022732;Domestic;Southern;Lake Hamilton;FL;US
a03247ffa84ea545ee4cf10d8933ed3a6f8673fd9fd15db6272745dae5ef9d3a;10025560;Domestic;Southern;Cramerton;NC;US
b5ddb6db817d8914fcdc2467625ae52ec571f071737c265eb6f1d8833f82a151;10024010;Domestic;Central;Mitchell;SD;US
849565cd97cdb313cf97f75090304b65b8ccd93718dc5cb084c3901ca799496d;10008381;Domestic;Western;Puyallup;WA;US
5292a0d97e15a995d7e6ba64f1b81d0d01c099917f6029fb24db86d34ae37e3f;10009863;International;International;Beijing 100088;Não Informado;UK
bffbfb3416579075155682bcd757ee70d4d16255ff80cb83f12ac2ee2da474d5;10020181;International;International;D 95326 Kulmbach;Não Informado;UK
12a28520ce0123cddab3635e982f6b2b4fd147ff4eab50ecc9f48332fe93652c;10022249;Domestic;Southern;Shelby;NC;US
b29842d32887f39741c2a328c360a0945992c8ba301434c8a1156037d22df9f7;10010970;Domestic;Southern;Irving;TX;US
54054ab99e02b6d2e85081f1c0dea6d82d615a05c43953d1fb5cb16ea5522394;10019942;Domestic;Central;New Castle;IN;US
eb269a2c0f2177071153dd219350cc0f7c83b872d603bdb36bcabcf26c0cccbd;10023760;Domestic;Northeast;North Hampton;NH;US
06c82d634a6eb45354830143c65888954e18850cdb920b0eb1b59804e6c9ba39;10025558;Domestic;Southern;Little Rock;AR;US
fe1b7d8d6bf2d8b35e384099bfa121c68de0b015a92d5679cc8dc1d545a4f004;10020662;International;International;Jakarta Utara;Não Informado;AU
28ce6210cd8ea4c17ad0c3c1121c5185abb1c5133a08c7c7aec20dc14f234e58;10013765;Domestic;Central;St Louis;MO;US
71238f3574b396fb2c06c83ef750529127103aa5444649f05d708c070237ab10;10000453;International;International;Não Informado;Não Informado;UK
3e9f07f49b1d42a1bd89a00b9a1c92d4cd5bbdda8b9894f32f57e7a1942f0d18;10026291;Domestic;Central;Poplar Bluff;MO;US
7c5abe1d299b81adcf3137ba9933a9b6ca2708c01e2ae0df621a1198770cbe46;10020915;Domestic;Central;McHenry;IL;US
056143371d75089784a37df029767f59a1850ebc3a53a56ee331e54f982f276e;10014043;International;International;Guadalajara Jal Mexico;Não Informado;IR
3afb1ff746e04200271340174bfc2de600715317c850e7f12e0c40b0841089d8;10002240;Domestic;Northeast;Medford;MA;US
2ccab22b63d56e677f1fa4db660697f25aecc41b276a584fb3645565f4881640;10007866;International;International;Sao Paulo;Não Informado;UK
d98dbf40cf72a763e4c14b6447abf823eb2227b82ec0e168beea5d61dcf07ca2;10020864;International;International;"";"";""
be770a2f93c35a3d18583d0fb878c771d4ce786b26caee2668010c50b482143e;10013472;Domestic;Central;Indianapolis;IN;US
2028025179a9e2082b53dcbe6a3600ee84de90e4acd93276c48faa91f2a2d911;10023235;Domestic;Southern;Houston;TX;US
24ac5f17e483da5845fbddca8bcec287b2b09c93b1b506c66a1dac61b1f8ce20;10016784;Domestic;Central;Pocahontas;IA;US
7930474a7085332e0daec25de112c6dda3a3580bda044cd7f926b90c29529e00;10019109;Domestic;Western;Sacramento;CA;US
8410360a1bd5d650d9e5b8145d3b43c1134d560f211b777e178143f6a2386014;10021305;International;International;"";"";""
40bd28e54ae9823b33cde194166c34370d236224ba9130c39543e025181788af;10024499;Domestic;Southern;Houston;TX;US
78f28385d2176301ff93ed2335c1a4bf7892a601bfb7374b507285933f4a239e;10009679;Domestic;Southern;Meridian;MS;US
c28bec451bba7362cc06459c8dd239183cd6c53e4012bd8f845d67d5c4225b3c;10020448;International;Canada;Regina;SK;CA
71c34e2f246c73919580f4deed98e356f65c3bcb53c86ce041d819e3357c9ef0;10019410;International;Canada;Edmonton;AB;CA
49d7768d4fbfda97089c685b9784f3258e8d3c4fe71f5e695ade0e1735957878;10010897;Domestic;Southern;Whitehouse;TN;US
e492b979008a76798d856bf53a322d81573ca49131ec73a616b719c93b8569f3;10013332;International;International;"";"";""
9ffc2357ceb28360e49b15c88d5a7a31c37a018bb79fe135e5b269400e8c4054;10006862;Domestic;Southern;Pearl;MS;US
887aac194f02dbfc07d180f8b4e9d13d9d579ff66290ae795fd84cd293232301;10023964;International;International;"";"";""
9119e8f73678332d80471f089c9f81585d3f1fa5551abe22d643f7c79404ca61;10010886;Domestic;Western;Libby;MT;US
ef1e6cce92673056e822004a8418da7d28c09c911079e76229134307e0b58bba;10010865;International;International;"";"";""
6373de48ac04e3fcef9289d3ae90c95e73cb9d9ccb2ed2385edd545c79d0414a;10018146;International;Canada;Fort Macleod;AB;CA
94423fb3a1d1c9ae16e44f9d0b1046d6cddb093fd3806ae3960d8dcebd88e813;10004245;Domestic;Western;Portland;OR;US
8f78894bc73c49ee66fe6f427adbcd1e014ec91cf12537bf78a6dd8941a93ff3;10002159;International;International;"";"";""
2aa0b77289d0f749232c206210a5447ba21f49de3eb9b68d6747f1912f7d87c4;10025238;Domestic;Western;San Diego;CA;US
8059ca6c8b104dd91a02b172735a54588fdce571cb2ffed10edc401f19db2870;10021240;International;International;"";"";""
ad26ea2647c1d18092e03337ebc28d04f8b706b9000ee27c4ad9200cbdd81ecd;10023778;Domestic;Western;Hillsboro;OR;US
f9674e2c76c4e5187698c53351564b8e794c270750366e4f63daf02d1725e346;10000461;International;Canada;Boucherville;QU;CA
fc8f0c8e92bed7ef04eca15bce682ad7845f4746edd1c1290c7da0e07a0ee7b6;10021485;Domestic;Central;Hamel;MN;US
df8859d0374679497bd574830bd1bc549ec5eec4682bb96d68064f599abb585e;10018129;International;International;ZI 1 Ducos;Não Informado;IR
a96668a90349ea4c9934aeb467db27e563d740f37793c0c421d3c613cc2291dc;10019664;Domestic;Central;MOLINE;IL;US
ca6f88fd40fcd07957995cf532af163a8692fa278eadf8f915cd9afc479ffe33;10025037;Domestic;Western;San Marcos;CA;US
d111f9cb05e4de3cd365fe8303565f31daa35a4a2dab8e3d3c789b0bb90ad0c5;10002489;Domestic;Southern;Villa Rica;GA;US
520884f6f3f802c7e3fd0d4e10968dbc0dae35998954aad7851e85554adcf0e9;10026868;International;International;Valencia;Não Informado;UK
a52d4d5e09bffe6bcd8a010b632093c8fc8015fddcc9a43901321d0fb90f3295;10002501;International;International;Não Informado;Não Informado;UK
e8728edb5d0ca49d903407272be5f9fab2dbce76ddfa72689af81b5549382b82;10022423;Domestic;Central;Cincinnati;OH;US
d748eef8239831cde6c11119bb80bf1f0bf9421edd59c276d843dccaff30ac35;10016807;Domestic;Central;Overland Park;KS;US
48f253c6335fc4486649d205f7932805bf03d5d3c1d3978ca04dc5696fbab670;10013080;International;International;"";"";""
1e158c9b7b7b06f07d4a3fe4f55c5e5f9538cd11e1870c9f225667078537ec0a;10015956;International;International;"";"";""
6e20e1b8179915ea902a8dd64e95bcadb28416c55bcd6deb4aef15b130998010;10007536;International;International;"";"";""
904af88109ecc7463038644171f05465d782f4441ec00f98941c78f16501b2b1;10010887;International;Canada;Edmonton;AB;CA
0e89348461811aaf6907e69b1ab799be7736d6b84750b9002a7de930ac20cc97;10014810;Domestic;Central;Canton;OH;US
df2250a8aec25bb0b36fe906f23f0942ae0ea4bc80b880dc3e05033900724158;10022755;International;International;Johannesburg;Não Informado;AU
bace2a6dc725697340f41bb0a40c912e72bbfc7e56da076b15b72109218f5035;10022746;International;International;A 5102 Anthering;Não Informado;UK
f507cc2e65c9a775f39865b21a4c71857ff08aea3ef04040f5d81f3b63c56fba;10006977;International;International;"";"";""
d51c5742792c3a00fdf8184a67e6e8b8fd45271bf64361217d00a27eddfe4a9f;10000488;International;International;"";"";""
df1ed85c09a1e5013e4d429edbdbd55a009c043e4912ac7f79529539ef08d489;10024743;Domestic;Western;Enumclaw;WA;US
68795a058bab5709c1d32931b041b084318ee22d46fceea10da7bb4f7a8c66a6;10011842;International;International;"";"";""
e75ec2af24a193d3e5239293fb13d96b63820859f3e13dcd3d701defa5072eb5;10025302;Domestic;Southern;Tulsa;OK;US
5ba6688537a3823f45440bea120e4ae60e99f6295668a4e498a6e05744e695af;10021331;International;International;"";"";""
ad6418d147c3bf963c7fd668c4e7afac129b2b696b831468da87e0c477ea36b3;10002161;International;International;"";"";""
536ef5a7a9fe418af454b347582bf6ed1c11406373d01b13c068bcf86ebee179;10000497;International;International;"";"";""
1d4c3e2bdf0dacae952ba8557f88540c5709de730a48d83d0ef51a34cb3f4dfd;10014469;Domestic;Central;Livonia;MI;US
e79c9573fa5318f740df0e58bf4c35f85d82a9bf7bf12f260bef53184e2e62c6;10025248;Domestic;Western;Kent;WA;US
72014ab36ae8b3bd9d1146b52813caf70a1e7dbe9bed112187d72d018c8fa73e;10000457;International;International;"";"";""
8a85800127d661faf3afc1583a2d57cfe4c9fc99b2c4905bb34ea4cdd54a97c5;10020909;Domestic;Central;Canton;OH;US
64a91bc843dc454003617b757395621b3ab59a9125702c02e3b9701c3e2a7b8e;10026334;International;International;"";"";""
a4bfddd4a15cef25a8b033874332a0b377da50797e94d59d13524a33ee676ea2;10011732;International;International;Não Informado;Não Informado;UK
66541e85859376def97a1c14e25da063b20c7caa5653a35f41a43331ba810007;10019665;Domestic;Central;Hammond;IN;US
077df7cc45168eebb3dbeba8dba5cbfc04d9cd84a9349036216e5f6e191847b8;10015789;International;International;Jeddah;Não Informado;AU
58cfde1f1d57c8f3f6e243143170352b71ce0a452481f601a3f925ecfea2ef21;10021470;Domestic;Northeast;Wrightsville;PA;US
01773f85955fb23b4a0c16719c5b78efd4861232faa39d3f21525c72ab127f68;10020492;International;International;"";"";""
cd18bf716888190e25e48c4804950a05b579e1922fd0be22188124d64cb73050;10016113;International;International;"";"";""
de7c21937987213414a07fafb86329b98c34918c5da3a71f0d4953aee9c2c62b;10023511;International;International;Schiphol-Rijk;Não Informado;IR
9a371d2cf626d4a4fa06eeb742c6ad888631eaf2de18eaa80636df88401c248e;10006917;International;International;"";"";""
